{"type": "FeatureCollection", "features": [ {"type": "Feature", "properties": {"norad_id": 17070, "name": "POLAR BEAR", "group": "nnss", "lat": 59.22511562001077, "lon": -176.177997898601, "alt_km": 946.1105484298832, "timestamp": "2025-12-27T14:26:30.790268+00:00", "meta": {"OBJECT_NAME": "POLAR BEAR", "OBJECT_ID": "1986-088A", "EPOCH": "2025-12-27T06:15:35.338752", "MEAN_MOTION": 13.75253832, "ECCENTRICITY": 0.00412517, "INCLINATION": 89.617, "RA_OF_ASC_NODE": 183.1922, "ARG_OF_PERICENTER": 77.5112, "MEAN_ANOMALY": 95.0753, "EPHEMERIS_TYPE": 0, "CLASSIFICATION_TYPE": "U", "NORAD_CAT_ID": 17070, "ELEMENT_SET_NO": 999, "REV_AT_EPOCH": 96178, "BSTAR": 0.0001183469, "MEAN_MOTION_DOT": 1.26e-06, "MEAN_MOTION_DDOT": 0}, "tle": {"line1": "1 17070U 86088A   25361.26082568  .00000126  00000+0  11835-3 0  9998", "line2": "2 17070  89.6170 183.1922 0041251  77.5112  95.0753 13.75253832961789"}}, "geometry": {"type": "Point", "coordinates": [-176.177997898601, 59.22511562001077]}}, {"type": "Feature", "properties": {"norad_id": 18361, "name": "OSCAR 27", "group": "nnss", "lat": 45.15670578740191, "lon": -99.79636727647215, "alt_km": 1033.0511102807195, "timestamp": "2025-12-27T14:26:30.790278+00:00", "meta": {"OBJECT_NAME": "OSCAR 27", "OBJECT_ID": "1987-080A", "EPOCH": "2025-12-27T06:37:38.342208", "MEAN_MOTION": 13.44909782, "ECCENTRICITY": 0.01041465, "INCLINATION": 90.3735, "RA_OF_ASC_NODE": 79.8157, "ARG_OF_PERICENTER": 182.017, "MEAN_ANOMALY": 178.0573, "EPHEMERIS_TYPE": 0, "CLASSIFICATION_TYPE": "U", "NORAD_CAT_ID": 18361, "ELEMENT_SET_NO": 999, "REV_AT_EPOCH": 87752, "BSTAR": 0.00017370212, "MEAN_MOTION_DOT": 1.14e-06, "MEAN_MOTION_DDOT": 0}, "tle": {"line1": "1 18361U 87080A   25361.27613822  .00000114  00000+0  17370-3 0  9996", "line2": "2 18361  90.3735  79.8157 0104146 182.0170 178.0573 13.44909782877527"}}, "geometry": {"type": "Point", "coordinates": [-99.79636727647215, 45.15670578740191]}}, {"type": "Feature", "properties": {"norad_id": 18362, "name": "OSCAR 29", "group": "nnss", "lat": 57.80682371855699, "lon": -99.1164755734634, "alt_km": 1075.6284459072758, "timestamp": "2025-12-27T14:26:30.790288+00:00", "meta": {"OBJECT_NAME": "OSCAR 29", "OBJECT_ID": "1987-080B", "EPOCH": "2025-12-27T07:00:45.935712", "MEAN_MOTION": 13.44451184, "ECCENTRICITY": 0.01049483, "INCLINATION": 90.3747, "RA_OF_ASC_NODE": 80.2764, "ARG_OF_PERICENTER": 205.0931, "MEAN_ANOMALY": 220.9034, "EPHEMERIS_TYPE": 0, "CLASSIFICATION_TYPE": "U", "NORAD_CAT_ID": 18362, "ELEMENT_SET_NO": 999, "REV_AT_EPOCH": 87705, "BSTAR": 0.00014998597, "MEAN_MOTION_DOT": 9.8e-07, "MEAN_MOTION_DDOT": 0}, "tle": {"line1": "1 18362U 87080B   25361.29219833  .00000098  00000+0  14999-3 0  9998", "line2": "2 18362  90.3747  80.2764 0104948 205.0931 220.9034 13.44451184877057"}}, "geometry": {"type": "Point", "coordinates": [-99.1164755734634, 57.80682371855699]}}, {"type": "Feature", "properties": {"norad_id": 19070, "name": "OSCAR 23", "group": "nnss", "lat": 86.71712820218713, "lon": 11.256335733489319, "alt_km": 1057.496592838822, "timestamp": "2025-12-27T14:26:30.790298+00:00", "meta": {"OBJECT_NAME": "OSCAR 23", "OBJECT_ID": "1988-033A", "EPOCH": "2025-12-27T01:28:05.869056", "MEAN_MOTION": 13.27789432, "ECCENTRICITY": 0.01906122, "INCLINATION": 90.3203, "RA_OF_ASC_NODE": 16.8358, "ARG_OF_PERICENTER": 140.2128, "MEAN_ANOMALY": 245.8061, "EPHEMERIS_TYPE": 0, "CLASSIFICATION_TYPE": "U", "NORAD_CAT_ID": 19070, "ELEMENT_SET_NO": 999, "REV_AT_EPOCH": 82443, "BSTAR": 0.00016492817, "MEAN_MOTION_DOT": 9.2e-07, "MEAN_MOTION_DDOT": 0}, "tle": {"line1": "1 19070U 88033A   25361.06117904  .00000092  00000+0  16493-3 0  9990", "line2": "2 19070  90.3203  16.8358 0190612 140.2128 245.8061 13.27789432824437"}}, "geometry": {"type": "Point", "coordinates": [11.256335733489319, 86.71712820218713]}}, {"type": "Feature", "properties": {"norad_id": 19071, "name": "OSCAR 32", "group": "nnss", "lat": -29.92703210095549, "lon": -163.19947378498583, "alt_km": 1143.254762192605, "timestamp": "2025-12-27T14:26:30.790308+00:00", "meta": {"OBJECT_NAME": "OSCAR 32", "OBJECT_ID": "1988-033B", "EPOCH": "2025-12-27T08:02:26.272320", "MEAN_MOTION": 13.27956102, "ECCENTRICITY": 0.01893608, "INCLINATION": 90.3208, "RA_OF_ASC_NODE": 16.977, "ARG_OF_PERICENTER": 126.3944, "MEAN_ANOMALY": 246.9285, "EPHEMERIS_TYPE": 0, "CLASSIFICATION_TYPE": "U", "NORAD_CAT_ID": 19071, "ELEMENT_SET_NO": 999, "REV_AT_EPOCH": 82459, "BSTAR": 0.00014086952, "MEAN_MOTION_DOT": 8e-07, "MEAN_MOTION_DDOT": 0}, "tle": {"line1": "1 19071U 88033B   25361.33502630  .00000080  00000+0  14087-3 0  9999", "line2": "2 19071  90.3208  16.9770 0189360 126.3944 246.9285 13.27956102824598"}}, "geometry": {"type": "Point", "coordinates": [-163.19947378498583, -29.92703210095549]}}, {"type": "Feature", "properties": {"norad_id": 19223, "name": "NOVA 2", "group": "nnss", "lat": 43.03143804406494, "lon": -101.75931563417535, "alt_km": 1190.985037711951, "timestamp": "2025-12-27T14:26:30.790333+00:00", "meta": {"OBJECT_NAME": "NOVA 2", "OBJECT_ID": "1988-052A", "EPOCH": "2025-12-27T04:56:26.312640", "MEAN_MOTION": 13.22937732, "ECCENTRICITY": 0.00293738, "INCLINATION": 89.9862, "RA_OF_ASC_NODE": 78.2541, "ARG_OF_PERICENTER": 336.6486, "MEAN_ANOMALY": 75.7931, "EPHEMERIS_TYPE": 0, "CLASSIFICATION_TYPE": "U", "NORAD_CAT_ID": 19223, "ELEMENT_SET_NO": 999, "REV_AT_EPOCH": 81139, "BSTAR": 0.00015382382, "MEAN_MOTION_DOT": 7.3e-07, "MEAN_MOTION_DDOT": 0}, "tle": {"line1": "1 19223U 88052A   25361.20586010  .00000073  00000+0  15382-3 0  9990", "line2": "2 19223  89.9862  78.2541 0029373 336.6486  75.7931 13.22937732811391"}}, "geometry": {"type": "Point", "coordinates": [-101.75931563417535, 43.03143804406494]}}, {"type": "Feature", "properties": {"norad_id": 19419, "name": "OSCAR 25", "group": "nnss", "lat": -4.677650894486152, "lon": -159.71077631536605, "alt_km": 1035.2879521401555, "timestamp": "2025-12-27T14:26:30.790346+00:00", "meta": {"OBJECT_NAME": "OSCAR 25", "OBJECT_ID": "1988-074A", "EPOCH": "2025-12-27T03:08:34.260576", "MEAN_MOTION": 13.42625944, "ECCENTRICITY": 0.00953655, "INCLINATION": 90.0336, "RA_OF_ASC_NODE": 20.2904, "ARG_OF_PERICENTER": 204.27, "MEAN_ANOMALY": 226.4208, "EPHEMERIS_TYPE": 0, "CLASSIFICATION_TYPE": "U", "NORAD_CAT_ID": 19419, "ELEMENT_SET_NO": 999, "REV_AT_EPOCH": 82833, "BSTAR": 0.00015106855, "MEAN_MOTION_DOT": 9.7e-07, "MEAN_MOTION_DDOT": 0}, "tle": {"line1": "1 19419U 88074A   25361.13095209  .00000097  00000+0  15107-3 0  9999", "line2": "2 19419  90.0336  20.2904 0095365 204.2700 226.4208 13.42625944828335"}}, "geometry": {"type": "Point", "coordinates": [-159.71077631536605, -4.677650894486152]}}, {"type": "Feature", "properties": {"norad_id": 19420, "name": "OSCAR 31", "group": "nnss", "lat": 65.7448034536058, "lon": 20.566096658152638, "alt_km": 1139.248604835414, "timestamp": "2025-12-27T14:26:30.790356+00:00", "meta": {"OBJECT_NAME": "OSCAR 31", "OBJECT_ID": "1988-074B", "EPOCH": "2025-12-27T07:00:56.464416", "MEAN_MOTION": 13.4258693, "ECCENTRICITY": 0.00937787, "INCLINATION": 90.0353, "RA_OF_ASC_NODE": 20.6434, "ARG_OF_PERICENTER": 197.9639, "MEAN_ANOMALY": 173.9697, "EPHEMERIS_TYPE": 0, "CLASSIFICATION_TYPE": "U", "NORAD_CAT_ID": 19420, "ELEMENT_SET_NO": 999, "REV_AT_EPOCH": 82846, "BSTAR": 0.00012904348, "MEAN_MOTION_DOT": 8.4e-07, "MEAN_MOTION_DDOT": 0}, "tle": {"line1": "1 19420U 88074B   25361.29232019  .00000084  00000+0  12904-3 0  9998", "line2": "2 19420  90.0353  20.6434 0093778 197.9639 173.9697 13.42586930828466"}}, "geometry": {"type": "Point", "coordinates": [20.566096658152638, 65.7448034536058]}}]}